[{"OBJECT_NAME":"NUSAT-41 (C PAYNE-G)","OBJECT_ID":"2023-084N","EPOCH":"2026-03-09T21:55:54.837696","MEAN_MOTION":15.29680045,"ECCENTRICITY":0.00062175,"INCLINATION":97.5351,"RA_OF_ASC_NODE":204.1011,"ARG_OF_PERICENTER":322.2064,"MEAN_ANOMALY":37.8738,"EPHEMERIS_TYPE":0,"CLASSIFICATION_TYPE":"U","NORAD_CAT_ID":56944,"ELEMENT_SET_NO":999,"REV_AT_EPOCH":15260,"BSTAR":0.00059912824,"MEAN_MOTION_DOT":0.0001718,"MEAN_MOTION_DDOT":0},{"OBJECT_NAME":"STARLINK-31568","OBJECT_ID":"2024-064Q","EPOCH":"2026-03-09T22:46:14.670624","MEAN_MOTION":15.27578305,"ECCENTRICITY":0.00013174,"INCLINATION":43.0078,"RA_OF_ASC_NODE":54.8624,"ARG_OF_PERICENTER":288.5744,"MEAN_ANOMALY":71.4964,"EPHEMERIS_TYPE":0,"CLASSIFICATION_TYPE":"U","NORAD_CAT_ID":59412,"ELEMENT_SET_NO":999,"REV_AT_EPOCH":10926,"BSTAR":1.8076951e-5,"MEAN_MOTION_DOT":2.35e-6,"MEAN_MOTION_DDOT":0}]
